NORAD_CAT_ID,OBJECT_NAME,OBJECT_TYPE,EPOCH,MEAN_MOTION,ECCENTRICITY,INCLINATION,RA_OF_ASC_NODE,ARG_OF_PERICENTER,MEAN_ANOMALY,BSTAR,MEAN_MOTION_DOT,MEAN_MOTION_DDOT,TLE_LINE0,TLE_LINE1,TLE_LINE2,SEMIMAJOR_AXIS,PERIOD,APOGEE,PERIGEE,DECAYED
55300.0,STARLINK-5308,PAYLOAD,2024-01-07 18:50:48,14.98329762,0.0002682,69.9981,220.9601,265.0074,95.0778,-3.7376e-06,-1.38e-06,0.0,0 STARLINK-5308,1 55300U 23010AH  24007.78527814 -.00000138  00000-0 -37376-5 0  9999,2 55300  69.9981 220.9601 0002682 265.0074  95.0778 14.98329762 54342,6950.194,96.107,573.923,570.195,0.0
55300.0,STARLINK-5308,PAYLOAD,2024-01-07 22:03:04,14.9832874,0.0002692,69.9982,220.6236,265.0621,95.0231,-1.5382e-05,-2.76e-06,0.0,0 STARLINK-5308,1 55300U 23010AH  24007.91879914 -.00000276  00000-0 -15382-4 0  9990,2 55300  69.9982 220.6236 0002692 265.0621  95.0231 14.98328740 54678,6950.197,96.107,573.933,570.191,0.0
55300.0,STARLINK-5308,PAYLOAD,2024-01-08 14:04:24,14.98331556,0.0002737,69.9981,218.9396,267.4838,92.6007,1.1766e-05,4.7e-07,0.0,0 STARLINK-5308,1 55300U 23010AH  24008.58639640  .00000047  00000-0  11766-4 0  9990,2 55300  69.9981 218.9396 0002737 267.4838  92.6007 14.98331556 54774,6950.188,96.107,573.955,570.151,0.0
55300.0,STARLINK-5308,PAYLOAD,2024-01-08 18:52:48,14.98331845,0.0002726,69.9982,218.4347,267.3832,92.7015,1.6444e-05,1.03e-06,0.0,0 STARLINK-5308,1 55300U 23010AH  24008.78667583  .00000103  00000-0  16444-4 0  9990,2 55300  69.9982 218.4347 0002726 267.3832  92.7015 14.98331845 54497,6950.187,96.107,573.947,570.158,0.0
55300.0,STARLINK-5308,PAYLOAD,2024-01-08 22:05:04,14.98331683,0.0002735,69.9982,218.098,267.7281,92.3564,1.4139e-05,7.6e-07,0.0,0 STARLINK-5308,1 55300U 23010AH  24008.92019584  .00000076  00000-0  14139-4 0  9996,2 55300  69.9982 218.0980 0002735 267.7281  92.3564 14.98331683 54820,6950.188,96.107,573.954,570.152,0.0
55300.0,STARLINK-5308,PAYLOAD,2024-01-09 14:06:25,14.98331183,0.0002777,69.9981,216.4148,267.4972,92.587,1.7376e-05,1.14e-06,0.0,0 STARLINK-5308,1 55300U 23010AH  24009.58779514  .00000114  00000-0  17376-4 0  9994,2 55300  69.9981 216.4148 0002777 267.4972  92.5870 14.98331183 54925,6950.189,96.107,573.984,570.124,0.0
55300.0,STARLINK-5308,PAYLOAD,2024-01-09 18:54:49,14.98331602,0.0002772,69.9982,215.9096,267.5466,92.5376,2.2409e-05,1.74e-06,0.0,0 STARLINK-5308,1 55300U 23010AH  24009.78807443  .00000174  00000-0  22409-4 0  9998,2 55300  69.9982 215.9096 0002772 267.5466  92.5376 14.98331602 54642,6950.188,96.107,573.98,570.126,0.0
55300.0,STARLINK-5308,PAYLOAD,2024-01-09 22:07:05,14.98332181,0.0002757,69.9982,215.573,267.3008,92.7835,2.8627e-05,2.49e-06,0.0,0 STARLINK-5308,1 55300U 23010AH  24009.92159366  .00000249  00000-0  28627-4 0  9999,2 55300  69.9982 215.5730 0002757 267.3008  92.7835 14.98332181 54977,6950.186,96.107,573.967,570.135,0.0
55300.0,STARLINK-5308,PAYLOAD,2024-01-09 23:43:13,14.98332257,0.0002755,69.9982,215.4047,267.3104,92.7739,2.8803e-05,2.51e-06,0.0,0 STARLINK-5308,1 55300U 23010AH  24009.98835349  .00000251  00000-0  28803-4 0  9996,2 55300  69.9982 215.4047 0002755 267.3104  92.7739 14.98332257 54980,6950.186,96.107,573.966,570.136,0.0
55300.0,STARLINK-5308,PAYLOAD,2024-01-10 18:56:50,14.98333114,0.0002598,69.9988,213.3849,265.3539,94.7324,1.9397e-05,1.39e-06,0.0,0 STARLINK-5308,1 55300U 23010AH  24010.78947188  .00000139  00000-0  19397-4 0  9994,2 55300  69.9988 213.3849 0002598 265.3539  94.7324 14.98333114 54792,6950.183,96.107,573.854,570.243,0.0
55300.0,STARLINK-5308,PAYLOAD,2024-01-11 14:10:27,14.98331096,0.0002618,69.9991,211.3655,267.0335,93.0524,-1.3039e-05,-2.49e-06,0.0,0 STARLINK-5308,1 55300U 23010AH  24011.59059292 -.00000249  00000-0 -13039-4 0  9995,2 55300  69.9991 211.3655 0002618 267.0335  93.0524 14.98331096 55225,6950.19,96.107,573.874,570.235,0.0
55300.0,STARLINK-5308,PAYLOAD,2024-01-11 22:11:07,14.98330566,0.0002633,69.9991,210.5238,266.4994,93.5864,-1.7681e-05,-3.04e-06,0.0,0 STARLINK-5308,1 55300U 23010AH  24011.92439295 -.00000304  00000-0 -17681-4 0  9996,2 55300  69.9991 210.5238 0002633 266.4994  93.5864 14.98330566 55272,6950.191,96.107,573.886,570.226,0.0
55300.0,STARLINK-5308,PAYLOAD,2024-01-12 14:12:28,14.98325181,0.0002565,69.9996,208.841,264.4068,95.6799,-5.8851e-05,-7.95e-06,0.0,0 STARLINK-5308,1 55300U 23010AH  24012.59199806 -.00000795  00000-0 -58851-4 0  9999,2 55300  69.9996 208.8410 0002565 264.4068  95.6799 14.98325181 55371,6950.208,96.107,573.856,570.29,0.0
55300.0,STARLINK-5308,PAYLOAD,2024-01-12 19:00:52,14.98324342,0.0002587,69.9997,208.3361,264.0754,96.0111,-6.5957e-05,-8.8e-06,0.0,0 STARLINK-5308,1 55300U 23010AH  24012.79227929 -.00000880  00000-0 -65957-4 0  9999,2 55300  69.9997 208.3361 0002587 264.0754  96.0111 14.98324342 55094,6950.21,96.107,573.873,570.277,0.0
55300.0,STARLINK-5308,PAYLOAD,2024-01-12 22:13:09,14.98323179,0.0002603,69.9997,207.9996,264.7392,95.347,-7.6331e-05,-1.003e-05,0.0,0 STARLINK-5308,1 55300U 23010AH  24012.92580086 -.00001003  00000-0 -76331-4 0  9996,2 55300  69.9997 207.9996 0002603 264.7392  95.3470 14.98323179 55421,6950.214,96.107,573.888,570.27,0.0
55300.0,STARLINK-5308,PAYLOAD,2024-01-13 14:14:29,14.9832771,0.0002659,69.9996,206.316,264.7152,95.3703,-1.0906e-05,-2.23e-06,0.0,0 STARLINK-5308,1 55300U 23010AH  24013.59339764 -.00000223  00000-0 -10906-4 0  9994,2 55300  69.9996 206.3160 0002659 264.7152  95.3703 14.98327710 55526,6950.2,96.107,573.913,570.217,0.0
55300.0,STARLINK-5308,PAYLOAD,2024-01-13 19:02:53,14.98327006,0.0002681,69.9997,205.8111,264.8255,95.2598,-1.8935e-05,-3.19e-06,0.0,0 STARLINK-5308,1 55300U 23010AH  24013.79367865 -.00000319  00000-0 -18935-4 0  9995,2 55300  69.9997 205.8111 0002681 264.8255  95.2598 14.98327006 55245,6950.202,96.107,573.93,570.204,0.0
55300.0,STARLINK-5308,PAYLOAD,2024-01-14 12:40:19,14.98356245,0.0003037,69.9993,203.959,271.5709,88.5102,0.00034529,4.032e-05,0.0,0 STARLINK-5308,1 55300U 23010AH  24014.52800345  .00004032  00000-0  34529-3 0  9992,2 55300  69.9993 203.9590 0003037 271.5709  88.5102 14.98356245 55351,6950.112,96.105,574.087,569.866,0.0
55300.0,STARLINK-5308,PAYLOAD,2024-01-14 14:16:27,14.98357586,0.0002956,69.9995,203.791,268.7274,91.3546,0.00035669,4.169e-05,0.0,0 STARLINK-5308,1 55300U 23010AH  24014.59476105  .00004169  00000-0  35669-3 0  9999,2 55300  69.9995 203.7910 0002956 268.7274  91.3546 14.98357586 55679,6950.108,96.105,574.027,569.918,0.0
55300.0,STARLINK-5308,PAYLOAD,2024-01-14 19:04:54,14.98324077,0.0002909,69.9993,203.286,273.2851,86.7975,-2.4288e-05,-3.83e-06,0.0,0 STARLINK-5308,1 55300U 23010AH  24014.79507190 -.00000383  00000-0 -24288-4 0  9992,2 55300  69.9993 203.2860 0002909 273.2851  86.7975 14.98324077 55398,6950.211,96.107,574.098,570.054,0.0
55300.0,STARLINK-5308,PAYLOAD,2024-01-14 22:17:10,14.98326501,0.0002861,69.9994,202.9497,270.4303,89.6528,1.6384e-06,-7.3e-07,0.0,0 STARLINK-5308,1 55300U 23010AH  24014.92858944 -.00000073  00000-0  16384-5 0  9997,2 55300  69.9994 202.9497 0002861 270.4303  89.6528 14.98326501 55726,6950.204,96.107,574.057,570.08,0.0
55300.0,STARLINK-5308,PAYLOAD,2024-01-15 14:18:30,14.98327896,0.0002822,69.9995,201.2669,270.1837,89.8998,-5.5344e-05,-7.53e-06,0.0,0 STARLINK-5308,1 55300U 23010AH  24015.59618999 -.00000753  00000-0 -55344-4 0  9999,2 55300  69.9995 201.2669 0002822 270.1837  89.8998 14.98327896 55828,6950.199,96.107,574.026,570.103,0.0
55300.0,STARLINK-5308,PAYLOAD,2024-01-15 19:06:54,14.9832791,0.0002815,69.9996,200.7622,270.1176,89.966,-5.2356e-05,-7.18e-06,0.0,0 STARLINK-5308,1 55300U 23010AH  24015.79646981 -.00000718  00000-0 -52356-4 0  9994,2 55300  69.9996 200.7622 0002815 270.1176  89.9660 14.98327910 55543,6950.199,96.107,574.021,570.108,0.0
55300.0,STARLINK-5308,PAYLOAD,2024-01-15 20:43:03,14.98328008,0.0002771,69.9997,200.5939,271.5507,88.5334,-4.8651e-05,-6.73e-06,0.0,0 STARLINK-5308,1 55300U 23010AH  24015.86322978 -.00000673  00000-0 -48651-4 0  9992,2 55300  69.9997 200.5939 0002771 271.5507  88.5334 14.98328008 55864,6950.199,96.107,573.99,570.138,0.0
55300.0,STARLINK-5308,PAYLOAD,2024-01-16 14:20:31,14.98336036,0.0002825,69.9997,198.7421,270.4485,89.635,-0.00038312,-4.662e-05,0.0,0 STARLINK-5308,1 55300U 23010AH  24016.59759076 -.00004662  00000-0 -38312-3 0  9990,2 55300  69.9997 198.7421 0002825 270.4485  89.6350 14.98336036 55973,6950.174,96.107,574.003,570.076,0.0
55300.0,STARLINK-5308,PAYLOAD,2024-01-16 19:08:55,14.98361765,0.0002636,69.9997,198.2372,275.8316,84.2543,-0.00083502,-0.0001005,0.0,0 STARLINK-5308,1 55300U 23010AH  24016.79786668 -.00010050  00000-0 -83502-3 0  9998,2 55300  69.9997 198.2372 0002636 275.8316  84.2543 14.98361765 55696,6950.095,96.105,573.792,570.128,0.0
55300.0,STARLINK-5308,PAYLOAD,2024-01-16 22:21:11,14.98344347,0.0002705,69.9997,197.9003,272.6357,87.4492,-0.00052456,-6.348e-05,0.0,0 STARLINK-5308,1 55300U 23010AH  24016.93138847 -.00006348  00000-0 -52456-3 0  9993,2 55300  69.9997 197.9003 0002705 272.6357  87.4492 14.98344347 56023,6950.149,96.106,573.894,570.134,0.0
55300.0,STARLINK-5308,PAYLOAD,2024-01-17 14:22:33,14.98321594,0.0002801,69.9996,196.2171,273.3072,86.7767,2.6499e-06,-6.1e-07,0.0,0 STARLINK-5308,1 55300U 23010AH  24017.59899457 -.00000061  00000-0  26499-5 0  9992,2 55300  69.9996 196.2171 0002801 273.3072  86.7767 14.98321594 56126,6950.219,96.108,574.031,570.137,0.0
55300.0,STARLINK-5308,PAYLOAD,2024-01-17 19:10:57,14.98321983,0.0002794,69.9997,195.7123,274.7999,85.2841,1.0309e-05,3e-07,0.0,0 STARLINK-5308,1 55300U 23010AH  24017.79927538  .00000030  00000-0  10309-4 0  9993,2 55300  69.9997 195.7123 0002794 274.7999  85.2841 14.98321983 55849,6950.218,96.108,574.025,570.141,0.0
55300.0,STARLINK-5308,PAYLOAD,2024-01-17 20:47:05,14.98322305,0.0002789,69.9998,195.544,274.788,85.296,1.4164e-05,7.6e-07,0.0,0 STARLINK-5308,1 55300U 23010AH  24017.86603543  .00000076  00000-0  14164-4 0  9991,2 55300  69.9998 195.5440 0002789 274.7880  85.2960 14.98322305 56160,6950.217,96.107,574.02,570.143,0.0
